NORAD_CAT_ID,OBJECT_NAME,OBJECT_TYPE,EPOCH,MEAN_MOTION,ECCENTRICITY,INCLINATION,RA_OF_ASC_NODE,ARG_OF_PERICENTER,MEAN_ANOMALY,BSTAR,MEAN_MOTION_DOT,MEAN_MOTION_DDOT,TLE_LINE0,TLE_LINE1,TLE_LINE2,SEMIMAJOR_AXIS,PERIOD,APOGEE,PERIGEE,DECAYED
49748.0,STARLINK-3248,PAYLOAD,2022-02-02 22:00:00,15.35224775,0.0001222,53.2174,25.4122,70.6757,279.8421,-0.020394,-0.00657739,0.0,0 STARLINK-3248,1 49748U 21115AA  22033.91667824 -.00657739  00000-0 -20394-1 0  9993,2 49748  53.2174  25.4122 0001222  70.6757 279.8421 15.35224775  3659,6838.39,93.797,461.091,459.419,0.0
49748.0,STARLINK-3248,PAYLOAD,2022-02-03 14:00:01,15.34293508,0.000117,53.2173,22.3078,73.687,2.2959,-0.021105,-0.00660452,0.0,0 STARLINK-3248,1 49748U 21115AA  22034.58334491 -.00660452  00000-0 -21105-1 0  9995,2 49748  53.2173  22.3078 0001170  73.6870   2.2959 15.34293508  3647,6841.156999999997,93.854,463.822,462.221,0.0
49748.0,STARLINK-3248,PAYLOAD,2022-02-03 22:00:01,15.33827106,0.0001359,53.2174,20.7549,61.2013,56.7387,-0.02143,-0.00660722,0.0,0 STARLINK-3248,1 49748U 21115AA  22034.91668981 -.00660722  00000-0 -21430-1 0  9997,2 49748  53.2174  20.7549 0001359  61.2013  56.7387 15.33827106  3649,6842.544,93.883,465.338,463.479,0.0
49748.0,STARLINK-3248,PAYLOAD,2022-02-04 14:00:01,15.32894312,0.000137,53.2174,17.6568,69.2371,130.8051,-0.022102,-0.00661495,0.0,0 STARLINK-3248,1 49748U 21115AA  22035.58335648 -.00661495  00000-0 -22102-1 0  9997,2 49748  53.2174  17.6568 0001370  69.2371 130.8051 15.32894312  3647,6845.319,93.94,468.122,466.246,0.0
49748.0,STARLINK-3248,PAYLOAD,2022-02-04 22:00:00,15.32427039,0.0001419,53.2174,16.1076,67.4989,172.6906,-0.022362,-0.0065961,0.0,0 STARLINK-3248,1 49748U 21115AA  22035.91667824 -.00659610  00000-0 -22362-1 0  9992,2 49748  53.2174  16.1076 0001419  67.4989 172.6906 15.32427039  3634,6846.7109999999975,93.969,469.547,467.604,0.0
49748.0,STARLINK-3248,PAYLOAD,2022-02-05 06:00:00,15.31898967,0.000143,53.2178,14.5576,71.5689,208.3088,-0.019927,-0.00576835,0.0,0 STARLINK-3248,1 49748U 21115AA  22036.25001157 -.00576835  00000-0 -19927-1 0  9991,2 49748  53.2178  14.5576 0001430  71.5689 208.3088 15.31898967 11178,6848.284000000002,94.001,471.128,469.17,0.0
49748.0,STARLINK-3248,PAYLOAD,2022-02-05 14:00:01,15.31470212,0.0001339,53.2178,13.0113,58.0274,260.915,-0.021833,-0.00627203,0.0,0 STARLINK-3248,1 49748U 21115AA  22036.58334491 -.00627203  00000-0 -21833-1 0  9992,2 49748  53.2178  13.0113 0001339  58.0274 260.9150 15.31470212  3610,6849.562,94.027,472.344,470.51,0.0
49748.0,STARLINK-3248,PAYLOAD,2022-02-05 22:00:01,15.310256,0.0001274999999999,53.2176,11.4704,62.8052,294.7162,-0.023252,-0.00656524,0.0,0 STARLINK-3248,1 49748U 21115AA  22036.91668981 -.00656524  00000-0 -23252-1 0  9998,2 49748  53.2176  11.4704 0001275  62.8052 294.7162 15.31025600 11278,6850.888000000001,94.055,473.627,471.88,0.0
49748.0,STARLINK-3248,PAYLOAD,2022-02-06 14:00:01,15.30094406,0.0001236,53.2175,8.3852,66.5479,6.3478,-0.024089,-0.00660386,0.0,0 STARLINK-3248,1 49748U 21115AA  22037.58335648 -.00660386  00000-0 -24089-1 0  9993,2 49748  53.2175   8.3852 0001236  66.5479   6.3478 15.30094406  3634,6853.667,94.112,476.379,474.685,0.0
49748.0,STARLINK-3248,PAYLOAD,2022-02-06 22:00:00,15.29627112,0.0001491,53.2176,6.8429,51.9834,57.6957,-0.024364,-0.00658474,0.0,0 STARLINK-3248,1 49748U 21115AA  22037.91667824 -.00658474  00000-0 -24364-1 0  9995,2 49748  53.2176   6.8429 0001491  51.9834  57.6957 15.29627112 11425,6855.063,94.141,477.95,475.906,0.0
49748.0,STARLINK-3248,PAYLOAD,2022-02-07 14:00:01,15.28695257,0.0001444,53.2175,3.7641,61.8514,119.8385,-0.025186,-0.00661144,0.0,0 STARLINK-3248,1 49748U 21115AA  22038.58334491 -.00661144  00000-0 -25186-1 0  9991,2 49748  53.2175   3.7641 0001444  61.8514 119.8385 15.28695257  3644,6857.849,94.198,480.704,478.723,0.0
49748.0,STARLINK-3248,PAYLOAD,2022-02-07 22:00:00,15.28227911,0.0001584,53.2177,2.2256,55.8483,161.0066,-0.025457,-0.00658895,0.0,0 STARLINK-3248,1 49748U 21115AA  22038.91667824 -.00658895  00000-0 -25457-1 0  9997,2 49748  53.2177   2.2256 0001584  55.8483 161.0066 15.28227911  3659,6859.246999999999,94.227,482.198,480.025,0.0
49748.0,STARLINK-3248,PAYLOAD,2022-02-08 06:00:00,15.27689973,0.0001569,53.2181,0.6833,68.0463,183.4545,-0.021925,-0.00564273,0.0,0 STARLINK-3248,1 49748U 21115AA  22039.25001157 -.00564273  00000-0 -21925-1 0  9998,2 49748  53.2181   0.6833 0001569  68.0463 183.4545 15.27689973 11629,6860.857,94.26,483.798,481.645,0.0
49748.0,STARLINK-3248,PAYLOAD,2022-02-08 14:00:01,15.27296365,0.0001361,53.2175,359.153,67.2,218.3021,-0.026364,-0.00662828,0.0,0 STARLINK-3248,1 49748U 21115AA  22039.58334491 -.00662828  00000-0 -26364-1 0  9991,2 49748  53.2175 359.1530 0001361  67.2000 218.3021 15.27296365  3645,6862.036,94.284,484.834,482.967,0.0
49748.0,STARLINK-3248,PAYLOAD,2022-02-08 22:00:01,15.26827985,0.0001424,53.2178,357.6177,56.2529,262.7962,-0.026555,-0.00658486,0.0,0 STARLINK-3248,1 49748U 21115AA  22039.91668981 -.00658486  00000-0 -26555-1 0  9999,2 49748  53.2178 357.6177 0001424  56.2529 262.7962 15.26827985 11735,6863.439,94.313,486.281,484.326,0.0
49748.0,STARLINK-3248,PAYLOAD,2022-02-09 13:54:09,15.2709798,0.0001328,53.2183,354.5101,93.7846,266.3306,-0.0078698,-0.00206483,0.0,0 STARLINK-3248,1 49748U 21115AA  22040.57928154 -.00206483  00000-0 -78698-2 0  9996,2 49748  53.2183 354.5101 0001328  93.7846 266.3306 15.27097980 10720,6862.63,94.297,485.406,483.583,0.0
49748.0,STARLINK-3248,PAYLOAD,2022-02-10 06:00:00,15.24961088,0.0001479,53.2177,351.4915,52.4184,34.8916,-0.028117,-0.0065882999999999,0.0,0 STARLINK-3248,1 49748U 21115AA  22041.25001157 -.00658830  00000-0 -28117-1 0  9994,2 49748  53.2177 351.4915 0001479  52.4184  34.8916 15.24961088 11931,6869.0390000000025,94.429,491.92,489.888,0.0
49748.0,STARLINK-3248,PAYLOAD,2022-02-10 13:29:35,15.25730435,6.43e-05,53.2175,349.9963,184.0769,176.0225,-0.0083299999999999,-0.00209577,0.0,0 STARLINK-3248,1 49748U 21115AA  22041.56221753 -.00209577  00000-0 -83300-2 0  9990,2 49748  53.2175 349.9963 0000643 184.0769 176.0225 15.25730435 10872,6866.73,94.381,489.036,488.153,0.0
49748.0,STARLINK-3248,PAYLOAD,2022-02-10 22:00:00,15.24027721,0.0001645,53.2178,348.4322,49.6683,98.4414,-0.028867,-0.00657785,0.0,0 STARLINK-3248,1 49748U 21115AA  22041.91667824 -.00657785  00000-0 -28867-1 0  9996,2 49748  53.2178 348.4322 0001645  49.6683  98.4414 15.24027721  3620,6871.844,94.486,494.839,492.578,0.0
49748.0,STARLINK-3248,PAYLOAD,2022-02-11 05:14:08,15.24657215,0.0001949,53.2175,346.9918,120.8813,239.2378,-0.010192,-0.00246999,0.0,0 STARLINK-3248,1 49748U 21115AA  22042.21815887 -.00246999  00000-0 -10192-1 0  9997,2 49748  53.2175 346.9918 0001949 120.8813 239.2378 15.24657215 12086,6869.9519999999975,94.447,493.156,490.478,0.0
49748.0,STARLINK-3248,PAYLOAD,2022-02-11 14:00:01,15.23095254,0.000145,53.2176,345.379,64.0206,142.645,-0.029725,-0.00658625,0.0,0 STARLINK-3248,1 49748U 21115AA  22042.58334491 -.00658625  00000-0 -29725-1 0  9999,2 49748  53.2176 345.3790 0001450  64.0206 142.6450 15.23095254 12132,6874.648,94.544,497.51,495.516,0.0
49748.0,STARLINK-3248,PAYLOAD,2022-02-11 22:00:01,15.22628092,0.0001571,53.2177,343.8542,56.4589,178.7074,-0.030094,-0.00657676,0.0,0 STARLINK-3248,1 49748U 21115AA  22042.91668981 -.00657676  00000-0 -30094-1 0  9996,2 49748  53.2177 343.8542 0001571  56.4589 178.7074 15.22628092  3643,6876.054,94.573,498.999,496.839,0.0
49748.0,STARLINK-3248,PAYLOAD,2022-02-12 04:51:32,15.23332688,0.0001068,53.2174,342.4834,92.1986,267.9134,-0.0079854,-0.00187571,0.0,0 STARLINK-3248,1 49748U 21115AA  22043.20245904 -.00187571  00000-0 -79854-2 0  9995,2 49748  53.2174 342.4834 0001068  92.1986 267.9134 15.23332688 12235,6873.934,94.53,496.533,495.064,0.0
49748.0,STARLINK-3248,PAYLOAD,2022-02-12 12:44:23,15.22876867,9.7e-05,53.2172,340.9813,147.3768,212.7291,-0.0089679,-0.00207227,0.0,0 STARLINK-3248,1 49748U 21115AA  22043.53083277 -.00207227  00000-0 -89679-2 0  9991,2 49748  53.2172 340.9813 0000970 147.3768 212.7291 15.22876867 11170,6875.305,94.558,497.837,496.503,0.0
49748.0,STARLINK-3248,PAYLOAD,2022-02-12 22:00:00,15.21229143,0.0001435,53.2178,339.2859,58.7754,258.2747,-0.031424,-0.00658772,0.0,0 STARLINK-3248,1 49748U 21115AA  22043.91667824 -.00658772  00000-0 -31424-1 0  9998,2 49748  53.2178 339.2859 0001435  58.7754 258.2747 15.21229143 12343,6880.269,94.66,503.121,501.147,0.0
49748.0,STARLINK-3248,PAYLOAD,2022-02-13 14:00:01,15.202949900000002,0.000125,53.2176,336.2455,66.5547,302.3246,-0.032241,-0.00657645,0.0,0 STARLINK-3248,1 49748U 21115AA  22044.58334491 -.00657645  00000-0 -32241-1 0  9999,2 49748  53.2176 336.2455 0001250  66.5547 302.3246 15.20294990  3641,6883.087,94.718,505.812,504.092,0.0
49748.0,STARLINK-3248,PAYLOAD,2022-02-14 06:00:00,15.19359905,0.0001273,53.2175,333.2116,67.0807,351.3842,-0.032944,-0.00654123,0.0,0 STARLINK-3248,1 49748U 21115AA  22045.25001157 -.00654123  00000-0 -32944-1 0  9992,2 49748  53.2175 333.2116 0001273  67.0807 351.3842 15.19359905 12542,6885.911,94.777,508.653,506.899,0.0
49748.0,STARLINK-3248,PAYLOAD,2022-02-14 14:00:01,15.18894602,0.0001372,53.2176,331.6936,57.6071,24.8105,-0.033524,-0.00663639,0.0,0 STARLINK-3248,1 49748U 21115AA  22045.58334491 -.00663639  00000-0 -33524-1 0  9995,2 49748  53.2176 331.6936 0001372  57.6071  24.8105 15.18894602  3645,6887.316999999999,94.806,510.127,508.237,0.0
49748.0,STARLINK-3248,PAYLOAD,2022-02-14 20:00:01,15.18545679,0.0001433,53.2178,330.5572,54.0582,315.9549,-0.0339089999999999,-0.00664444,0.0,0 STARLINK-3248,1 49748U 21115AA  22045.83334491 -.00664444  00000-0 -33909-1 0  9995,2 49748  53.2178 330.5572 0001433  54.0582 315.9549 15.18545679  3628,6888.371999999999,94.828,511.224,509.25,0.0
